STARLINK-31569          
1 59857U 24097Y   24157.16667824 -.00248711  00000+0 -17440-2 0  9997
2 59857  43.0024 336.6857 0001966 277.5213  32.5625 15.73961057  3286
STARLINK-31654          
1 59858U 24098A   24157.16667824 -.00793523  00000+0 -48958-2 0  9993
2 59858  43.0063 346.2656 0001966 280.5881  61.5016 15.78307617  3118
STARLINK-31442          
1 59859U 24098B   24157.16667824 -.00861504  00000+0 -38280-2 0  9996
2 59859  43.0061 346.1392 0002285 286.4093 106.0310 15.85435932  2478
STARLINK-31651          
1 59860U 24098C   24157.16667824 -.00805871  00000+0 -49870-2 0  9990
2 59860  43.0061 346.2561 0001892 282.3434  63.4158 15.78274241  2423
STARLINK-31703          
1 59861U 24098D   24156.91667824 -.00762644  00000+0 -46248-2 0  9999
2 59861  43.0062 347.7768 0001664 286.2880  79.4337 15.78609132  2444
STARLINK-31584          
1 59862U 24098E   24156.91667824 -.00768135  00000+0 -46614-2 0  9998
2 59862  43.0062 347.7724 0001566 285.6854  81.6784 15.78608689  2281
STARLINK-31950          
1 59863U 24098F   24156.91667824 -.00776036  00000+0 -47217-2 0  9998
2 59863  43.0062 347.7671 0001584 287.0511  82.4706 15.78571551  2447
STARLINK-31931          
1 59864U 24098G   24156.91667824 -.00787531  00000+0 -48034-2 0  9999
2 59864  43.0062 347.7619 0001447 282.7461  88.7528 15.78548832  2441
STARLINK-31938          
1 59865U 24098H   24156.91667824 -.00790629  00000+0 -48319-2 0  9998
2 59865  43.0062 347.7567 0001862 283.8267  89.7862 15.78509532  3099
STARLINK-31941          
1 59866U 24098J   24157.16667824  .00256482  00000+0  12076-2 0  9990
2 59866  43.0058 346.2023 0004345 288.4978  78.5117 15.81600103  2475
STARLINK-31952          
1 59867U 24098K   24156.91667824 -.00803602  00000+0 -49290-2 0  9995
2 59867  43.0060 347.7471 0001682 288.4195  88.9924 15.78465477  2441
STARLINK-31921          
1 59868U 24098L   24157.16667824  .00691829  22143-3  13296-2 0  9991
2 59868  43.0041 345.4949 0006875 284.4126   3.1941 15.99623504  2487
STARLINK-31760          
1 59869U 24098M   24156.91667824 -.00821517  00000+0 -50657-2 0  9991
2 59869  43.0060 347.7367 0001576 286.9915  94.5149 15.78396666  2447
STARLINK-31945          
1 59870U 24098N   24156.91667824 -.00828087  00000+0 -51183-2 0  9997
2 59870  43.0058 347.7316 0001649 287.9005  95.6283 15.78361223  2444
STARLINK-31937          
1 59871U 24098P   24156.91667824 -.00835622  00000+0 -51775-2 0  9998
2 59871  43.0058 347.7263 0001731 289.2170  96.3169 15.78326553  2444
STARLINK-31944          
1 59872U 24098Q   24156.91667824 -.00845800  00000+0 -52561-2 0  9992
2 59872  43.0057 347.7212 0001594 286.1945 101.3733 15.78289507  2396
STARLINK-31940          
1 59873U 24098R   24156.91667824 -.00850563  00000+0 -52932-2 0  9997
2 59873  43.0057 347.7167 0001601 288.0970 101.2630 15.78270784  2284
STARLINK-31933          
1 59874U 24098S   24157.16667824 -.00912239  00000+0 -58460-2 0  9997
2 59874  43.0052 346.1855 0001873 283.5255  89.8362 15.77785385  2475
STARLINK-31936          
1 59875U 24098T   24156.91667824 -.00870210  00000+0 -54395-2 0  9995
2 59875  43.0056 347.7070 0001493 280.6067 112.4571 15.78226243  2450
STARLINK-31935          
1 59876U 24098U   24157.16667824 -.00924528  00000+0 -59504-2 0  9993
2 59876  43.0053 346.1764 0001971 282.6722  94.3834 15.77721881  2471
STARLINK-31934          
1 59877U 24098V   24157.16667824 -.00930919  00000+0 -60035-2 0  9996
2 59877  43.0053 346.1719 0001939 283.4035  95.4450 15.77695318  2473
STARLINK-31943          
1 59878U 24098W   24157.16667824 -.00941859  00000+0 -60982-2 0  9993
2 59878  43.0053 346.1670 0001895 283.4998  97.4143 15.77637557  2471
STARLINK-31926          
1 59879U 24098X   24157.16667824  .00186599  00000+0  98387-3 0  9995
2 59879  43.0054 346.1559 0001448 306.4691  78.7710 15.79337525  3128
STARLINK-31919          
1 59880U 24098Y   24156.91667824 -.00909819  00000+0 -57629-2 0  9992
2 59880  43.0056 347.6824 0001729 279.2563 123.6128 15.78037613  3093
PREFIRE-1               
1 59881U 24099A   24156.54163617  .00007007  00000+0  41209-3 0  9998
2 59881  97.4983  14.2116 0012717 267.2752  92.7023 15.11906534  1545
ELECTRON R/B            
1 59882U 24099B   24157.12256181  .01977333  22172-5  15261-2 0  9990
2 59882  97.4769  15.8509 0155919 184.7713 175.2087 15.94151402  1705
ELECTRON KICK STAGE R/B 
1 59883U 24099C   24157.17991351  .00019678  00000+0  77121-3 0  9993
2 59883  97.5039  15.0454 0049816 343.3544  16.6056 15.24639787  1648
STARLINK-31974          
1 59885U 24100A   24156.75001157 -.00975961  00000+0 -40796-2 0  9992
2 59885  43.0054 195.3915 0001475 264.4843 248.7437 15.86952990  2274
STARLINK-31975          
1 59886U 24100B   24156.75001157 -.00980602  00000+0 -40908-2 0  9996
2 59886  43.0053 195.3872 0001335 259.2055 255.7002 15.87005648  2375
STARLINK-31976          
1 59887U 24100C   24156.75001157 -.00991738  00000+0 -41292-2 0  9996
2 59887  43.0053 195.3820 0001638 278.2925 238.6603 15.87067896  2372
STARLINK-31965          
1 59888U 24100D   24156.75001157 -.00997159  00000+0 -41433-2 0  9997
2 59888  43.0053 195.3770 0001517 261.1586 257.6971 15.87122991  2273
STARLINK-31969          
1 59889U 24100E   24156.75001157 -.01008087  00000+0 -41804-2 0  9994
2 59889  43.0052 195.3718 0001659 277.4116 243.6322 15.87187100  2370
STARLINK-31951          
1 59890U 24100F   24156.75001157 -.01015486  00000+0 -42031-2 0  9990
2 59890  43.0052 195.3668 0001557 278.8057 244.0995 15.87243781  2270
STARLINK-31949          
1 59891U 24100G   24156.75001157 -.01022153  00000+0 -42218-2 0  9997
2 59891  43.0051 195.3620 0001708 272.3473 252.4735 15.87299996  2271
STARLINK-31977          
1 59892U 24100H   24156.75001157 -.01029734  00000+0 -42450-2 0  9998
2 59892  43.0051 195.3568 0001481 278.5927 248.2197 15.87358752  2375
STARLINK-31963          
1 59893U 24100J   24156.75001157 -.01037021  00000+0 -42656-2 0  9995
2 59893  43.0050 195.3513 0001683 269.1587 259.8171 15.87417931  2372
STARLINK-31961          
1 59894U 24100K   24156.75001157 -.01045650  00000+0 -42936-2 0  9994
2 59894  43.0051 195.3465 0001430 272.0510 258.8411 15.87476173  2378
STARLINK-31964          
1 59895U 24100L   24156.75001157 -.01054169  00000+0 -43203-2 0  9998
2 59895  43.0050 195.3418 0001588 277.8790 254.8585 15.87532875  2328
STARLINK-31905          
1 59896U 24100M   24156.75001157 -.01061479  00000+0 -43415-2 0  9996
2 59896  43.0049 195.3365 0001620 277.7709 256.9342 15.87590114  2373
STARLINK-31928          
1 59897U 24100N   24156.75001157 -.01064076  00000+0 -43427-2 0  9996
2 59897  43.0048 195.3317 0001315 269.0222 267.6070 15.87642975  2274
STARLINK-31953          
1 59898U 24100P   24156.75001157 -.01078121  00000+0 -43920-2 0  9991
2 59898  43.0047 195.3263 0001799 273.8900 264.8828 15.87707207  2377
STARLINK-31942          
1 59899U 24100Q   24156.75001157 -.01084382  00000+0 -44092-2 0  9999
2 59899  43.0044 195.3216 0001633 277.4590 263.1158 15.87761611  2372
STARLINK-31676          
1 59900U 24100R   24156.75001157 -.01087861  00000+0 -44133-2 0  9993
2 59900  43.0045 195.3164 0001507 273.6523 268.9898 15.87816633  2270
STARLINK-31908          
1 59901U 24100S   24156.75001157 -.01100014  00000+0 -44556-2 0  9999
2 59901  43.0044 195.3111 0001423 274.5977 270.0588 15.87877997  2373
STARLINK-31914          
1 59902U 24100T   24156.75001157 -.01104407  00000+0 -44634-2 0  9997
2 59902  43.0043 195.3064 0001612 270.4311 276.0878 15.87930661  2272
STARLINK-31850          
1 59903U 24100U   24156.75001157 -.01116182  00000+0 -45037-2 0  9999
2 59903  43.0044 195.3013 0001552 275.8342 272.7210 15.87991795  2328
STARLINK-31924          
1 59904U 24100V   24156.75001157 -.01135759  00000+0 -45656-2 0  9998
2 59904  43.0043 195.2902 0001600 276.9387 275.9580 15.88112462  2275
STARLINK-31898          
1 59905U 24100W   24156.75001157 -.01128710  00000+0 -45455-2 0  9995
2 59905  43.0046 195.2954 0001833 272.8473 278.1086 15.88056575  2374
STARLINK-31861          
1 59906U 24100X   24156.75001157 -.01140569  00000+0 -45755-2 0  9995
2 59906  43.0044 195.2859 0001621 274.0665 280.5743 15.88164580  2271
STARLINK-31920          
1 59907U 24100Y   24156.75001157 -.01144338  00000+0 -45802-2 0  9997
2 59907  43.0045 195.2809 0001573 261.3211 295.3981 15.88219235  2276
EARTHCARE               
1 59908U 24101A   24156.34315197  .00019747  00000+0  29214-3 0  9998
2 59908  96.9775 284.4592 0004666 120.6387 239.5329 15.55317590   991
TIANQI 25               
1 59909U 24102A   24157.17216363  .00000385  00000+0  26907-3 0  9991
2 59909  44.9783 324.8818 0011704 336.1796  23.8500 14.14310663   974
TIANQI 26               
1 59910U 24102B   24157.17144485  .00000390  00000+0  27117-3 0  9998
2 59910  44.9747 324.8761 0012171 338.7193  21.3139 14.14459469   970
TIANQI 27               
1 59911U 24102C   24157.17097112  .00000412  00000+0  28226-3 0  9990
2 59911  44.9792 324.8748 0012068 342.3156  17.7261 14.14558772   962
TIANQI 28               
1 59912U 24102D   24154.23791126  .00000986  00000+0  57822-3 0  9991
2 59912  44.9796 338.2582 0013295 325.5909 204.0871 14.14567625   543
PROGRESS-MS 27          
1 59913U 24103A   24156.56564796  .00020817  00000+0  36048-3 0  9994
2 59913  51.6383  17.8493 0005981 272.9610  87.0695 15.50862004456592
PAKSAT-MM1              
1 59915U 24104A   24151.80722123 -.00000248  00000+0  00000+0 0  9991
2 59915  26.7202  68.7443 7296653 179.4408 232.4718  2.28298286    18
CZ-3B R/B               
1 59916U 24104B   24156.72977844  .00168355  12562-5  49769-2 0  9993
2 59916  26.7480  66.8737 7217155 181.8376 172.1485  2.40516263   139
2024-105A               
1 59917U 24105A   24157.20041685  .00003554  00000+0  22692-3 0  9998
2 59917  97.6021 163.6167 0013496 265.3183  94.6504 15.09245803   789
2024-105B               
1 59918U 24105B   24157.13344835  .00004845  00000+0  30887-3 0  9993
2 59918  97.6025 163.5521 0012175 273.6709  86.3128 15.09136702   783
